ONEWEB-0504             
1 54122U 22138K   25284.67662191  .00000070  00000+0  14252-3 0  9992
2 54122  87.9280 354.3941 0001565 103.7838 256.3470 13.19723432144052
ONEWEB-0505             
1 54123U 22138L   25284.67347462  .00000026  00000+0  33181-4 0  9998
2 54123  87.9279 354.3828 0001512 115.8951 244.2338 13.19726903144030
ONEWEB-0506             
1 54124U 22138M   25284.64819314  .00000029  00000+0  40770-4 0  9991
2 54124  87.9279 354.3850 0001766 103.5785 256.5545 13.19724046144027
ONEWEB-0507             
1 54125U 22138N   25284.89617395  .00000097  00000+0  21114-3 0  9999
2 54125  87.9261 354.3816 0001811 106.3046 253.8286 13.19724241144101
ONEWEB-0508             
1 54126U 22138P   25284.89302217  .00000029  00000+0  41102-4 0  9999
2 54126  87.9273 354.3700 0001761 112.2382 247.8938 13.19724112144081
ONEWEB-0509             
1 54127U 22138Q   25284.94355859 -.00000094  00000+0 -26832-3 0  9992
2 54127  87.9281 354.3249 0001806 103.3240 256.8094 13.19727515144064
ONEWEB-0510             
1 54128U 22138R   25284.87648793 -.00000119  00000+0 -32542-3 0  9990
2 54128  87.9221 323.9579 0002245  84.1481 275.9909 13.20772802146507
ONEWEB-0511             
1 54129U 22138S   25284.63713910  .00000132  00000+0  29657-3 0  9995
2 54129  87.9274 354.3898 0001620  94.2022 265.9296 13.19724431144056
